NORAD_CAT_ID,OBJECT_NAME,OBJECT_TYPE,EPOCH,MEAN_MOTION,ECCENTRICITY,INCLINATION,RA_OF_ASC_NODE,ARG_OF_PERICENTER,MEAN_ANOMALY,BSTAR,MEAN_MOTION_DOT,MEAN_MOTION_DDOT,TLE_LINE0,TLE_LINE1,TLE_LINE2,SEMIMAJOR_AXIS,PERIOD,APOGEE,PERIGEE,DECAYED
52374.0,STARLINK-3762,PAYLOAD,2022-05-15 22:00:00,15.73211899,7.72e-05,53.2172,356.8978,94.3802,358.4722,-8.4316e-05,-0.0001244,0.0,0 STARLINK-3762,1 52374U 22045AV  22135.91667824 -.00012440  00000-0 -84316-4 0  9999,2 52374  53.2172 356.8978 0000772  94.3802 358.4722 15.73211899  1302,6727.861,91.532,350.246,349.207,0.0
52374.0,STARLINK-3762,PAYLOAD,2022-05-16 06:00:02,15.73197062,0.0001117,53.2137,355.2492,106.7251,75.3604,3.3926e-05,4.143e-05,0.0,0 STARLINK-3762,1 52374U 22045AV  22136.25002315  .00004143  00000-0  33926-4 0  9995,2 52374  53.2137 355.2492 0001117 106.7251  75.3604 15.73197062  5120,6727.904,91.533,350.52,349.017,0.0
52374.0,STARLINK-3762,PAYLOAD,2022-05-16 14:00:01,15.73178989,0.0001131,53.214,353.5982,115.3111,155.6289,9.2174e-05,0.00012324,0.0,0 STARLINK-3762,1 52374U 22045AV  22136.58334491  .00012324  00000-0  92174-4 0  9994,2 52374  53.2140 353.5982 0001131 115.3111 155.6289 15.73178989  1300,6727.955,91.534,350.581,349.059,0.0
52374.0,STARLINK-3762,PAYLOAD,2022-05-16 22:00:00,15.73233326,0.0001001,53.2136,351.9505,101.7367,258.1422,-0.00028018,-0.0003981,0.0,0 STARLINK-3762,1 52374U 22045AV  22136.91667824 -.00039810  00000-0 -28018-3 0  9996,2 52374  53.2136 351.9505 0001001 101.7367 258.1422 15.73233326  1301,6727.8,91.531,350.339,348.992,0.0
52374.0,STARLINK-3762,PAYLOAD,2022-05-17 12:00:00,15.73179834,0.0001323,53.2131,349.0613,111.451,314.0844,0.0001792,0.00024581,0.0,0 STARLINK-3762,1 52374U 22045AV  22137.50001157  .00024581  00000-0  17920-3 0  9990,2 52374  53.2131 349.0613 0001323 111.4510 314.0844 15.73179834  5328,6727.953,91.534,350.708,348.92800000000005,0.0
52374.0,STARLINK-3762,PAYLOAD,2022-05-17 14:00:01,15.73202053,0.0001409999999999,53.2133,348.649,111.9172,65.9049,-0.00010732,-0.00015655,0.0,0 STARLINK-3762,1 52374U 22045AV  22137.58335648 -.00015655  00000-0 -10732-3 0  9991,2 52374  53.2133 348.6490 0001410 111.9172  65.9049 15.73202053  1307,6727.889,91.533,350.70300000000015,348.806,0.0
52374.0,STARLINK-3762,PAYLOAD,2022-05-17 22:00:01,15.73165677,0.0001361999999999,53.2133,347.0015,99.6741,167.0923,0.00058332,0.00081926,0.0,0 STARLINK-3762,1 52374U 22045AV  22137.91668981  .00081926  00000-0  58332-3 0  9997,2 52374  53.2133 347.0015 0001362  99.6741 167.0923 15.73165677  1308,6727.993,91.535,350.774,348.94199999999995,0.0
52374.0,STARLINK-3762,PAYLOAD,2022-05-18 14:00:01,15.73220416,0.0001276,53.2139,343.6998,109.6309,334.9635,-0.00015414,-0.00022214,0.0,0 STARLINK-3762,1 52374U 22045AV  22138.58334491 -.00022214  00000-0 -15414-3 0  9998,2 52374  53.2139 343.6998 0001276 109.6309 334.9635 15.73220416  1300,6727.837,91.532,350.56,348.843,0.0
52374.0,STARLINK-3762,PAYLOAD,2022-05-18 20:00:01,15.732251500000002,0.0001202,53.2135,342.4643,98.9326,322.3671,-0.00071651,-0.00100096,0.0,0 STARLINK-3762,1 52374U 22045AV  22138.83334491 -.00100096  00000-0 -71651-3 0  9996,2 52374  53.2135 342.4643 0001202  98.9326 322.3671 15.73225150  5538,6727.823,91.532,350.497,348.88,0.0
52374.0,STARLINK-3762,PAYLOAD,2022-05-18 22:00:00,15.7319314,0.0001194,53.2137,342.0522,95.823,77.7176,-0.00043787,-0.00061605,0.0,0 STARLINK-3762,1 52374U 22045AV  22138.91667824 -.00061605  00000-0 -43787-3 0  9995,2 52374  53.2137 342.0522 0001194  95.8230  77.7176 15.73193140  1307,6727.915,91.534,350.583,348.976,0.0
52374.0,STARLINK-3762,PAYLOAD,2022-05-19 06:00:00,15.7314531,0.0001218,53.2131,340.4012,102.4766,159.9621,0.00027782,0.00038458,0.0,0 STARLINK-3762,1 52374U 22045AV  22139.25001157  .00038458  00000-0  27782-3 0  9999,2 52374  53.2131 340.4012 0001218 102.4766 159.9621 15.73145310  5592,6728.051,91.536,350.736,349.097,0.0
52374.0,STARLINK-3762,PAYLOAD,2022-05-19 14:00:01,15.73192227,0.0001385999999999,53.2134,338.751,108.3755,242.9932,-0.0003383,-0.00047814,0.0,0 STARLINK-3762,1 52374U 22045AV  22139.58335648 -.00047814  00000-0 -33830-3 0  9999,2 52374  53.2134 338.7510 0001386 108.3755 242.9932 15.73192227  1309,6727.917,91.534,350.715,348.85,0.0
52374.0,STARLINK-3762,PAYLOAD,2022-05-19 22:00:00,15.73208622,9.24e-05,53.2135,337.1033,98.5295,341.8276,6.2147e-05,8.114e-05,0.0,0 STARLINK-3762,1 52374U 22045AV  22139.91667824  .00008114  00000-0  62147-4 0  9992,2 52374  53.2135 337.1033 0000924  98.5295 341.8276 15.73208622  5704,6727.871,91.533,350.357,349.11400000000015,0.0
52374.0,STARLINK-3762,PAYLOAD,2022-05-20 14:00:01,15.73221963,0.0001147,53.2141,333.8019,105.9069,152.3271,-0.00025178,-0.00035838,0.0,0 STARLINK-3762,1 52374U 22045AV  22140.58334491 -.00035838  00000-0 -25178-3 0  9995,2 52374  53.2141 333.8019 0001147 105.9069 152.3271 15.73221963  1303,6727.833000000001,91.532,350.469,348.926,0.0
52374.0,STARLINK-3762,PAYLOAD,2022-05-20 22:00:00,15.73171068,0.0001105,53.2138,332.1543,90.3911,256.7939,-3.4205e-06,-1.099e-05,0.0,0 STARLINK-3762,1 52374U 22045AV  22140.91667824 -.00001099  00000-0 -34205-5 0  9996,2 52374  53.2138 332.1543 0001105  90.3911 256.7939 15.73171068  5854,6727.978,91.535,350.586,349.099,0.0
52374.0,STARLINK-3762,PAYLOAD,2022-05-21 06:00:00,15.7318869,0.0001119,53.2134,330.5032,97.5078,338.5613,9.8229e-05,0.00013181,0.0,0 STARLINK-3762,1 52374U 22045AV  22141.25001157  .00013181  00000-0  98229-4 0  9993,2 52374  53.2134 330.5032 0001119  97.5078 338.5613 15.73188690  1306,6727.927,91.534,350.545,349.04,0.0
52374.0,STARLINK-3762,PAYLOAD,2022-05-21 14:00:01,15.7317507,0.0001217,53.2136,328.8534,102.6535,62.3852,0.00030643,0.00042557,0.0,0 STARLINK-3762,1 52374U 22045AV  22141.58335648  .00042557  00000-0  30643-3 0  9998,2 52374  53.2136 328.8534 0001217 102.6535  62.3852 15.73175070  1305,6727.965999999999,91.535,350.65,349.01199999999994,0.0
52374.0,STARLINK-3762,PAYLOAD,2022-05-21 20:00:01,15.73221587,0.000111,53.2134,327.6179,90.0678,51.6117,-0.00016157,-0.00023253,0.0,0 STARLINK-3762,1 52374U 22045AV  22141.83334491 -.00023253  00000-0 -16157-3 0  9999,2 52374  53.2134 327.6179 0001110  90.0678  51.6117 15.73221587  6007,6727.834,91.532,350.445,348.952,0.0
52374.0,STARLINK-3762,PAYLOAD,2022-05-21 22:00:00,15.73198217,0.0001069,53.2136,327.2059,86.8179,167.1057,0.0001571999999999,0.00021497,0.0,0 STARLINK-3762,1 52374U 22045AV  22141.91667824  .00021497  00000-0  15720-3 0  9998,2 52374  53.2136 327.2059 0001069  86.8179 167.1057 15.73198217  1301,6727.9,91.533,350.4840000000001,349.046,0.0
52374.0,STARLINK-3762,PAYLOAD,2022-05-22 14:00:01,15.73217099,0.0001047,53.214,323.9048,94.2929,337.4632,-0.00067354,-0.00094161,0.0,0 STARLINK-3762,1 52374U 22045AV  22142.58334491 -.00094161  00000-0 -67354-3 0  9993,2 52374  53.2140 323.9048 0001047  94.2929 337.4632 15.73217099  1300,6727.846,91.532,350.416,349.00699999999995,0.0
52374.0,STARLINK-3762,PAYLOAD,2022-05-22 22:00:01,15.73120633,0.0001046,53.2137,322.257,77.2544,83.5132,0.00095283,0.00134809,0.0,0 STARLINK-3762,1 52374U 22045AV  22142.91668981  .00134809  00000-0  95283-3 0  9998,2 52374  53.2137 322.2570 0001046  77.2544  83.5132 15.73120633  6172,6728.121,91.538,350.69,349.283,0.0
52374.0,STARLINK-3762,PAYLOAD,2022-05-23 14:00:01,15.731969400000002,0.0001145,53.2134,318.9563,90.3731,248.1564,-1.3988e-06,-8.16e-06,0.0,0 STARLINK-3762,1 52374U 22045AV  22143.58334491 -.00000816  00000-0 -13988-5 0  9994,2 52374  53.2134 318.9563 0001145  90.3731 248.1564 15.73196940  1309,6727.904,91.533,350.539,348.999,0.0
52374.0,STARLINK-3762,PAYLOAD,2022-05-23 22:00:01,15.73242678,0.0001159,53.2132,317.3081,66.0718,1.6824,0.00041493,0.00058123,0.0,0 STARLINK-3762,1 52374U 22045AV  22143.91668981  .00058123  00000-0  41493-3 0  9997,2 52374  53.2132 317.3081 0001159  66.0718   1.6824 15.73242678  6334,6727.773,91.531,350.418,348.8590000000001,0.0
52374.0,STARLINK-3762,PAYLOAD,2022-05-24 04:00:00,15.73317676,0.0001053,53.2132,316.0692,66.7266,337.7004,-0.00091871,-0.00128248,0.0,0 STARLINK-3762,1 52374U 22045AV  22144.16667824 -.00128248  00000-0 -91871-3 0  9993,2 52374  53.2132 316.0692 0001053  66.7266 337.7004 15.73317676  6374,6727.56,91.526,350.1330000000001,348.716,0.0
52374.0,STARLINK-3762,PAYLOAD,2022-05-24 14:00:01,15.73189141,0.0001042,53.2139,314.0067,69.9299,175.72299999999996,-0.00081347,-0.00113205,0.0,0 STARLINK-3762,1 52374U 22045AV  22144.58334491 -.00113205  00000-0 -81347-3 0  9994,2 52374  53.2139 314.0067 0001042  69.9299 175.7230 15.73189141  6436,6727.926,91.534,350.492,349.09,0.0
52374.0,STARLINK-3762,PAYLOAD,2022-05-24 22:00:00,15.73079032,0.0001095,53.2141,312.3588,52.0308,282.5176,0.00041538,0.00057775,0.0,0 STARLINK-3762,1 52374U 22045AV  22144.91667824  .00057775  00000-0  41538-3 0  9995,2 52374  53.2141 312.3588 0001095  52.0308 282.5176 15.73079032  6488,6728.24,91.54,350.842,349.36800000000005,0.0
52374.0,STARLINK-3762,PAYLOAD,2022-05-25 12:00:00,15.73205804,0.0001341999999999,53.2176,309.4698,65.7927,333.9244,-1.4719e-05,-2.686e-05,0.0,0 STARLINK-3762,1 52374U 22045AV  22145.50001157 -.00002686  00000-0 -14719-4 0  9997,2 52374  53.2176 309.4698 0001342  65.7927 333.9244 15.73205804  6573,6727.879,91.533,350.647,348.841,0.0
52374.0,STARLINK-3762,PAYLOAD,2022-05-25 14:00:01,15.73205558,0.0001419999999999,53.2175,309.058,61.58600000000001,90.3646,-1.4989000000000008e-05,-2.724e-05,0.0,0 STARLINK-3762,1 52374U 22045AV  22145.58334491 -.00002724  00000-0 -14989-4 0  9997,2 52374  53.2175 309.0580 0001420  61.5860  90.3646 15.73205558  1307,6727.879,91.533,350.7,348.789,0.0
52374.0,STARLINK-3762,PAYLOAD,2022-05-25 22:00:00,15.73226477,0.0001124,53.2146,307.4103,40.3067,200.8332,0.00015987,0.000219,0.0,0 STARLINK-3762,1 52374U 22045AV  22145.91667824  .00021900  00000-0  15987-3 0  9996,2 52374  53.2146 307.4103 0001124  40.3067 200.8332 15.73226477  6648,6727.82,91.532,350.441,348.92800000000005,0.0
